[{"OBJECT_NAME":"ONEWEB-0658","OBJECT_ID":"2023-029Z","EPOCH":"2026-01-13T04:11:19.774752","MEAN_MOTION":13.1972481,"ECCENTRICITY":0.0001337,"INCLINATION":87.9237,"RA_OF_ASC_NODE":335.7853,"ARG_OF_PERICENTER":74.2105,"MEAN_ANOMALY":285.9175,"EPHEMERIS_TYPE":0,"CLASSIFICATION_TYPE":"U","NORAD_CAT_ID":55819,"ELEMENT_SET_NO":999,"REV_AT_EPOCH":13847,"BSTAR":0.00021264523,"MEAN_MOTION_DOT":9.8e-7,"MEAN_MOTION_DDOT":0},{"OBJECT_NAME":"ONEWEB-0660","OBJECT_ID":"2023-029AA","EPOCH":"2026-01-13T01:47:37.299264","MEAN_MOTION":13.1450165,"ECCENTRICITY":0.00017569,"INCLINATION":87.9027,"RA_OF_ASC_NODE":320.6035,"ARG_OF_PERICENTER":67.8347,"MEAN_ANOMALY":292.2969,"EPHEMERIS_TYPE":0,"CLASSIFICATION_TYPE":"U","NORAD_CAT_ID":55820,"ELEMENT_SET_NO":999,"REV_AT_EPOCH":13902,"BSTAR":0.00021560183,"MEAN_MOTION_DOT":9.3e-7,"MEAN_MOTION_DDOT":0},{"OBJECT_NAME":"ONEWEB-0661","OBJECT_ID":"2023-029AB","EPOCH":"2026-01-13T06:17:04.676352","MEAN_MOTION":13.1450247,"ECCENTRICITY":0.00018909,"INCLINATION":87.9011,"RA_OF_ASC_NODE":320.6292,"ARG_OF_PERICENTER":69.1254,"MEAN_ANOMALY":291.0078,"EPHEMERIS_TYPE":0,"CLASSIFICATION_TYPE":"U","NORAD_CAT_ID":55821,"ELEMENT_SET_NO":999,"REV_AT_EPOCH":13903,"BSTAR":-0.0005271718,"MEAN_MOTION_DOT":-1.83e-6,"MEAN_MOTION_DDOT":0},{"OBJECT_NAME":"ONEWEB-0662","OBJECT_ID":"2023-029AC","EPOCH":"2026-01-13T03:28:05.169792","MEAN_MOTION":13.14503522,"ECCENTRICITY":0.00017399,"INCLINATION":87.9019,"RA_OF_ASC_NODE":320.6587,"ARG_OF_PERICENTER":67.2124,"MEAN_ANOMALY":292.919,"EPHEMERIS_TYPE":0,"CLASSIFICATION_TYPE":"U","NORAD_CAT_ID":55822,"ELEMENT_SET_NO":999,"REV_AT_EPOCH":13906,"BSTAR":0.00061266032,"MEAN_MOTION_DOT":2.4e-6,"MEAN_MOTION_DDOT":0},{"OBJECT_NAME":"ONEWEB-0663","OBJECT_ID":"2023-029AD","EPOCH":"2026-01-13T06:00:43.085088","MEAN_MOTION":13.20856584,"ECCENTRICITY":0.00015768,"INCLINATION":87.9241,"RA_OF_ASC_NODE":305.4048,"ARG_OF_PERICENTER":61.4918,"MEAN_ANOMALY":298.6374,"EPHEMERIS_TYPE":0,"CLASSIFICATION_TYPE":"U","NORAD_CAT_ID":55823,"ELEMENT_SET_NO":999,"REV_AT_EPOCH":14069,"BSTAR":4.8606298e-5,"MEAN_MOTION_DOT":3.3e-7,"MEAN_MOTION_DDOT":0},{"OBJECT_NAME":"ONEWEB-0664","OBJECT_ID":"2023-029AE","EPOCH":"2026-01-13T06:27:06.784992","MEAN_MOTION":13.20772668,"ECCENTRICITY":0.00020729,"INCLINATION":87.9222,"RA_OF_ASC_NODE":305.4014,"ARG_OF_PERICENTER":71.6234,"MEAN_ANOMALY":288.5124,"EPHEMERIS_TYPE":0,"CLASSIFICATION_TYPE":"U","NORAD_CAT_ID":55824,"ELEMENT_SET_NO":999,"REV_AT_EPOCH":14069,"BSTAR":2.182544e-6,"MEAN_MOTION_DOT":1.4e-7,"MEAN_MOTION_DDOT":0},{"OBJECT_NAME":"ONEWEB-0665","OBJECT_ID":"2023-029AF","EPOCH":"2026-01-13T06:12:30.327840","MEAN_MOTION":13.14502887,"ECCENTRICITY":0.00017211,"INCLINATION":87.9023,"RA_OF_ASC_NODE":320.6081,"ARG_OF_PERICENTER":68.2663,"MEAN_ANOMALY":291.865,"EPHEMERIS_TYPE":0,"CLASSIFICATION_TYPE":"U","NORAD_CAT_ID":55825,"ELEMENT_SET_NO":999,"REV_AT_EPOCH":13905,"BSTAR":-0.00049898852,"MEAN_MOTION_DOT":-1.72e-6,"MEAN_MOTION_DDOT":0},{"OBJECT_NAME":"ONEWEB-0666","OBJECT_ID":"2023-029AG","EPOCH":"2026-01-13T04:28:55.675200","MEAN_MOTION":13.20771418,"ECCENTRICITY":0.00018492,"INCLINATION":87.9222,"RA_OF_ASC_NODE":305.4073,"ARG_OF_PERICENTER":99.8285,"MEAN_ANOMALY":260.3057,"EPHEMERIS_TYPE":0,"CLASSIFICATION_TYPE":"U","NORAD_CAT_ID":55826,"ELEMENT_SET_NO":999,"REV_AT_EPOCH":14069,"BSTAR":-5.5408482e-5,"MEAN_MOTION_DOT":-1.0e-7,"MEAN_MOTION_DDOT":0},{"OBJECT_NAME":"ONEWEB-0667","OBJECT_ID":"2023-029AH","EPOCH":"2026-01-13T06:08:56.067072","MEAN_MOTION":13.20771619,"ECCENTRICITY":0.00017708,"INCLINATION":87.9233,"RA_OF_ASC_NODE":305.3295,"ARG_OF_PERICENTER":70.0787,"MEAN_ANOMALY":290.0537,"EPHEMERIS_TYPE":0,"CLASSIFICATION_TYPE":"U","NORAD_CAT_ID":55827,"ELEMENT_SET_NO":999,"REV_AT_EPOCH":14069,"BSTAR":2.912697e-5,"MEAN_MOTION_DOT":2.5e-7,"MEAN_MOTION_DDOT":0},{"OBJECT_NAME":"ONEWEB-0669","OBJECT_ID":"2023-029AJ","EPOCH":"2026-01-13T06:02:06.811872","MEAN_MOTION":13.20771047,"ECCENTRICITY":0.0002319,"INCLINATION":87.9223,"RA_OF_ASC_NODE":305.361,"ARG_OF_PERICENTER":81.5231,"MEAN_ANOMALY":278.6165,"EPHEMERIS_TYPE":0,"CLASSIFICATION_TYPE":"U","NORAD_CAT_ID":55828,"ELEMENT_SET_NO":999,"REV_AT_EPOCH":14069,"BSTAR":0.00025468943,"MEAN_MOTION_DOT":1.17e-6,"MEAN_MOTION_DDOT":0},{"OBJECT_NAME":"ONEWEB-0670","OBJECT_ID":"2023-029AK","EPOCH":"2026-01-13T05:40:31.219680","MEAN_MOTION":13.14501467,"ECCENTRICITY":0.00020073,"INCLINATION":87.9019,"RA_OF_ASC_NODE":320.6321,"ARG_OF_PERICENTER":69.6493,"MEAN_ANOMALY":290.4852,"EPHEMERIS_TYPE":0,"CLASSIFICATION_TYPE":"U","NORAD_CAT_ID":55829,"ELEMENT_SET_NO":999,"REV_AT_EPOCH":13907,"BSTAR":0.00041790172,"MEAN_MOTION_DOT":1.68e-6,"MEAN_MOTION_DDOT":0},{"OBJECT_NAME":"ONEWEB-0671","OBJECT_ID":"2023-029AL","EPOCH":"2026-01-13T04:04:30.560160","MEAN_MOTION":13.19723822,"ECCENTRICITY":0.00017837,"INCLINATION":87.9227,"RA_OF_ASC_NODE":335.8256,"ARG_OF_PERICENTER":74.9435,"MEAN_ANOMALY":285.1895,"EPHEMERIS_TYPE":0,"CLASSIFICATION_TYPE":"U","NORAD_CAT_ID":55830,"ELEMENT_SET_NO":999,"REV_AT_EPOCH":13845,"BSTAR":1.7286151e-5,"MEAN_MOTION_DOT":2.0e-7,"MEAN_MOTION_DDOT":0},{"OBJECT_NAME":"ONEWEB-0672","OBJECT_ID":"2023-029AM","EPOCH":"2026-01-13T04:06:12.674592","MEAN_MOTION":13.20772245,"ECCENTRICITY":0.00018409,"INCLINATION":87.9228,"RA_OF_ASC_NODE":305.3592,"ARG_OF_PERICENTER":84.0623,"MEAN_ANOMALY":276.072,"EPHEMERIS_TYPE":0,"CLASSIFICATION_TYPE":"U","NORAD_CAT_ID":55831,"ELEMENT_SET_NO":999,"REV_AT_EPOCH":14068,"BSTAR":0.00018135364,"MEAN_MOTION_DOT":8.7e-7,"MEAN_MOTION_DDOT":0},{"OBJECT_NAME":"ONEWEB-0673","OBJECT_ID":"2023-029AN","EPOCH":"2026-01-12T22:04:00.050592","MEAN_MOTION":13.19724707,"ECCENTRICITY":0.0001822,"INCLINATION":87.9235,"RA_OF_ASC_NODE":335.8587,"ARG_OF_PERICENTER":76.7156,"MEAN_ANOMALY":283.418,"EPHEMERIS_TYPE":0,"CLASSIFICATION_TYPE":"U","NORAD_CAT_ID":55832,"ELEMENT_SET_NO":999,"REV_AT_EPOCH":13842,"BSTAR":0.00014714,"MEAN_MOTION_DOT":7.2e-7,"MEAN_MOTION_DDOT":0},{"OBJECT_NAME":"ONEWEB-0674","OBJECT_ID":"2023-029AP","EPOCH":"2026-01-13T04:54:52.687008","MEAN_MOTION":13.14502751,"ECCENTRICITY":0.00020751,"INCLINATION":87.9015,"RA_OF_ASC_NODE":320.616,"ARG_OF_PERICENTER":69.1608,"MEAN_ANOMALY":290.9744,"EPHEMERIS_TYPE":0,"CLASSIFICATION_TYPE":"U","NORAD_CAT_ID":55833,"ELEMENT_SET_NO":999,"REV_AT_EPOCH":13905,"BSTAR":0.00014518547,"MEAN_MOTION_DOT":6.7e-7,"MEAN_MOTION_DDOT":0},{"OBJECT_NAME":"ONEWEB-0675","OBJECT_ID":"2023-029AQ","EPOCH":"2026-01-13T03:53:08.236896","MEAN_MOTION":13.19729288,"ECCENTRICITY":0.00014139,"INCLINATION":87.9231,"RA_OF_ASC_NODE":335.8344,"ARG_OF_PERICENTER":87.6789,"MEAN_ANOMALY":272.4506,"EPHEMERIS_TYPE":0,"CLASSIFICATION_TYPE":"U","NORAD_CAT_ID":55834,"ELEMENT_SET_NO":999,"REV_AT_EPOCH":13847,"BSTAR":0.0028735811,"MEAN_MOTION_DOT":1.164e-5,"MEAN_MOTION_DDOT":0}]
