ONEWEB-0658             
1 55819U 23029Z   26013.17453443  .00000098  00000+0  21265-3 0  9992
2 55819  87.9237 335.7853 0001337  74.2105 285.9175 13.19724810138479
ONEWEB-0660             
1 55820U 23029AA  26013.07473726  .00000093  00000+0  21560-3 0  9992
2 55820  87.9027 320.6035 0001756  67.8347 292.2969 13.14501650139028
ONEWEB-0661             
1 55821U 23029AB  26013.26185968 -.00000183  00000+0 -52717-3 0  9992
2 55821  87.9011 320.6292 0001890  69.1254 291.0078 13.14502470139038
ONEWEB-0662             
1 55822U 23029AC  26013.14450428  .00000240  00000+0  61266-3 0  9997
2 55822  87.9019 320.6587 0001739  67.2124 292.9190 13.14503522139068
ONEWEB-0663             
1 55823U 23029AD  26013.25049867  .00000033  00000+0  48606-4 0  9995
2 55823  87.9241 305.4048 0001576  61.4918 298.6374 13.20856584140699
ONEWEB-0664             
1 55824U 23029AE  26013.26882853  .00000014  00000+0  21825-5 0  9991
2 55824  87.9222 305.4014 0002072  71.6234 288.5124 13.20772668140699
ONEWEB-0665             
1 55825U 23029AF  26013.25868435 -.00000172  00000+0 -49899-3 0  9997
2 55825  87.9023 320.6081 0001721  68.2663 291.8650 13.14502887139056
ONEWEB-0666             
1 55826U 23029AG  26013.18675550 -.00000010  00000+0 -55408-4 0  9999
2 55826  87.9222 305.4073 0001849  99.8285 260.3057 13.20771418140690
ONEWEB-0667             
1 55827U 23029AH  26013.25620448  .00000025  00000+0  29127-4 0  9997
2 55827  87.9233 305.3295 0001770  70.0787 290.0537 13.20771619140695
ONEWEB-0669             
1 55828U 23029AJ  26013.25146773  .00000117  00000+0  25469-3 0  9998
2 55828  87.9223 305.3610 0002319  81.5231 278.6165 13.20771047140691
ONEWEB-0670             
1 55829U 23029AK  26013.23647245  .00000168  00000+0  41790-3 0  9998
2 55829  87.9019 320.6321 0002007  69.6493 290.4852 13.14501467139070
ONEWEB-0671             
1 55830U 23029AL  26013.16979815  .00000020  00000+0  17286-4 0  9994
2 55830  87.9227 335.8256 0001783  74.9435 285.1895 13.19723822138458
ONEWEB-0672             
1 55831U 23029AM  26013.17098003  .00000087  00000+0  18135-3 0  9993
2 55831  87.9228 305.3592 0001840  84.0623 276.0720 13.20772245140689
ONEWEB-0673             
1 55832U 23029AN  26012.91944503  .00000072  00000+0  14714-3 0  9993
2 55832  87.9235 335.8587 0001822  76.7156 283.4180 13.19724707138428
ONEWEB-0674             
1 55833U 23029AP  26013.20477647  .00000067  00000+0  14519-3 0  9994
2 55833  87.9015 320.6160 0002075  69.1608 290.9744 13.14502751139050
ONEWEB-0675             
1 55834U 23029AQ  26013.16190089  .00001164  00000+0  28736-2 0  9996
2 55834  87.9231 335.8344 0001413  87.6789 272.4506 13.19729288138470
